TRANSIT 16 [?]          
1 02807U 67048A   23007.78365899  .00000124  00000+0  17813-3 0  9998
2 02807  89.6579  29.4472 0019300 335.0730 198.4224 13.50350423738346
TRANSIT 17 [?]          
1 02965U 67092A   23007.70064031  .00000138  00000+0  18763-3 0  9998
2 02965  89.2342 107.6263 0049612 102.8992  68.8853 13.53061605726250
TRANSIT 18 [?]          
1 03133U 68012A   23007.51613133  .00000142  00000+0  20066-3 0  9995
2 03133  90.0118 271.7109 0076079  31.4092 142.2791 13.51189473424644
NNSS 19 [?]             
1 04507U 70067A   23007.92457121  .00000151  00000+0  19735-3 0  9993
2 04507  89.9327 237.8563 0173073 151.5599 209.5133 13.50868956577762
NNSS O-20 [?]           
1 06909U 73081A   23008.02639160  .00000279  00000+0  27638-3 0  9999
2 06909  89.8234 273.5710 0157832  44.7089 316.6672 13.70737981657323
TRANSAT [?]             
1 10457U 77106A   23007.24656503  .00000092  00000+0  13034-3 0  9995
2 10457  89.6757 115.9040 0026093  43.3225 344.8361 13.48703458223133
NOVA I [?]              
1 12458U 81044A   23008.54044644  .00000083  00000+0  17622-3 0  9992
2 12458  89.8845 105.3970 0015198 166.1347 205.5648 13.23086690 10741
NOVA 3 [?]              
1 15362U 84110A   23008.45570036  .00000068  00000+0  14047-3 0  9996
2 15362  90.1033  68.9460 0032888  40.2060 330.8583 13.22852152845883
OSCAR 30 [?]            
1 15935U 85066A   23007.69323432  .00000130  00000+0  22208-3 0  9992
2 15935  90.1807  81.4791 0167756 221.8556 305.4391 13.35784910821660
OSCAR 24 [?]            
1 15936U 85066B   23008.13542823  .00000125  00000+0  21227-3 0  9994
2 15936  90.1772  73.3954 0168183 226.4686 161.1276 13.35643916823866
POLAR BEAR [?]          
1 17070U 86088A   23008.38804822  .00000125  00000+0  11823-3 0  9998
2 17070  89.5727 228.3252 0041033 104.9517  68.0826 13.74901904813108
OSCAR 27 [?]            
1 18361U 87080A   23007.79063562  .00000114  00000+0  17403-3 0  9995
2 18361  90.3354  41.0633 0105713  49.3181 311.7094 13.44594632731776
OSCAR 29 [?]            
1 18362U 87080B   23007.84837900  .00000091  00000+0  13560-3 0  9991
2 18362  90.3367  41.4137 0107814  69.5348 102.5548 13.44180553731354
OSCAR 23 [?]            
1 19070U 88033A   23007.68013951  .00000043  00000+0  75720-4 0  9995
2 19070  90.3252 343.2712 0188042 276.0366 259.6226 13.27546260680546
OSCAR 32 [?]            
1 19071U 88033B   23007.72112454  .00000064  00000+0  11716-3 0  9996
2 19071  90.3254 343.3627 0186329 263.5793 273.2393 13.27725183680658
NOVA 11 [?]             
1 19223U 88052A   23007.47098649  .00000075  00000+0  15771-3 0  9994
2 19223  89.9777  80.3720 0032438  84.2231 287.8655 13.22764606667980
OSCAR 25 [?]            
1 19419U 88074A   23008.03158709  .00000103  00000+0  16060-3 0  9996
2 19419  90.0050  18.0245 0097957  58.2452 314.7180 13.42323755683155
OSCAR 31 [?]            
1 19420U 88074B   23008.52307378  .00000063  00000+0  92317-4 0  9995
2 19420  90.0062  18.2229 0096009  51.1242 114.3918 13.42331439683320
